[{"OBJECT_NAME":"HORS 2","OBJECT_ID":"2023-091AG","EPOCH":"2026-03-09T22:11:34.810944","MEAN_MOTION":15.2928008,"ECCENTRICITY":0.00098173,"INCLINATION":97.5195,"RA_OF_ASC_NODE":134.7443,"ARG_OF_PERICENTER":79.3164,"MEAN_ANOMALY":280.9181,"EPHEMERIS_TYPE":0,"CLASSIFICATION_TYPE":"U","NORAD_CAT_ID":57196,"ELEMENT_SET_NO":999,"REV_AT_EPOCH":14934,"BSTAR":0.00059338338,"MEAN_MOTION_DOT":0.00016821,"MEAN_MOTION_DDOT":0},{"OBJECT_NAME":"STARLINK-35631","OBJECT_ID":"2025-237H","EPOCH":"2026-03-09T22:11:23.438976","MEAN_MOTION":15.30224149,"ECCENTRICITY":0.00014792,"INCLINATION":53.1604,"RA_OF_ASC_NODE":38.7377,"ARG_OF_PERICENTER":95.9433,"MEAN_ANOMALY":264.1737,"EPHEMERIS_TYPE":0,"CLASSIFICATION_TYPE":"U","NORAD_CAT_ID":66121,"ELEMENT_SET_NO":999,"REV_AT_EPOCH":2264,"BSTAR":0.0013195166,"MEAN_MOTION_DOT":0.00038956,"MEAN_MOTION_DDOT":0}]
